ONEWEB-0309             
1 49095U 21075W   23263.78329821  .00000011  00000+0 -60017-5 0  9999
2 49095  87.9157 204.6718 0002086  58.1315 302.0019 13.17652043102823
ONEWEB-0310             
1 49096U 21075X   23263.54700684  .00000373  00000+0  10021-2 0  9991
2 49096  87.9075 189.5824 0002057  68.6065 291.5283 13.12445866103934
ONEWEB-0311             
1 49097U 21075Y   23263.56182574  .00000044  00000+0  81204-4 0  9994
2 49097  87.9160 204.7194 0001458  80.6936 279.4360 13.17648604101855
ONEWEB-0312             
1 49098U 21075Z   23263.57446315 -.00000081  00000+0 -24165-3 0  9997
2 49098  87.9240 204.7053 0001627  63.5794 296.5504 13.17651267101836
ONEWEB-0313             
1 49099U 21075AA  23263.55336433 -.00000044  00000+0 -14666-3 0  9999
2 49099  87.9232 204.7256 0001684  68.9185 291.2127 13.17647752101825
ONEWEB-0314             
1 49100U 21075AB  23263.54705577  .00000069  00000+0  14518-3 0  9991
2 49100  87.9155 204.7154 0001544  61.5395 298.5892 13.17650702101790
ONEWEB-0315             
1 49101U 21075AC  23263.51842444 -.00000358  00000+0 -10294-2 0  9993
2 49101  87.9069 189.5979 0001929  84.8886 275.2463 13.12441605104918
ONEWEB-0316             
1 49102U 21075AD  23263.27203291  .00000139  00000+0  32003-3 0  9996
2 49102  87.9228 174.5510 0001326  92.2907 267.8377 13.18688327105292
